start=new Date('2022-10-12T00:00:00.000Z').valueOf();
sats=[{"EPOCH":"2022-10-11T17:57:54.543744","RCS_SIZE":"LARGE","RA_OF_ASC_NODE":"185.3867","OBJECT_NAME":"STARLINK-2626","PERIOD":"95.593","BSTAR":"-0.00004278700000","COUNTRY_CODE":"US","INCLINATION":"53.0553","TLE_LINE2":"2 48363  53.0553 185.3867 0001454 118.6432 241.4703 15.06387840 79452","EPHEMERIS_TYPE":"0","ARG_OF_PERICENTER":"118.6432","NORAD_CAT_ID":"48363","ELEMENT_SET_NO":"999","CLASSIFICATION_TYPE":"U","REF_FRAME":"TEME","CENTER_NAME":"EARTH","MEAN_ANOMALY":"241.4703","OBJECT_TYPE":"PAYLOAD","FILE":"3604484","LAUNCH_DATE":"2021-05-04","APOAPSIS":"548.258","PERIAPSIS":"546.244","MEAN_MOTION":"15.06387840","OBJECT_ID":"2021-038L","REV_AT_EPOCH":"7945","SITE":"AFETR","ECCENTRICITY":"0.00014540","MEAN_MOTION_DDOT":"0.0000000000000","MEAN_ELEMENT_THEORY":"SGP4","SEMIMAJOR_AXIS":"6925.386","GP_ID":"214820804","TLE_LINE1":"1 48363U 21038L   22284.74854796 -.00000918  00000-0 -42787-4 0  9998","DECAY_DATE":null,"MEAN_MOTION_DOT":"-0.00000918","TIME_SYSTEM":"UTC"},{"ARG_OF_PERICENTER":"93.2306","ELEMENT_SET_NO":"999","NORAD_CAT_ID":"48364","REF_FRAME":"TEME","CENTER_NAME":"EARTH","CLASSIFICATION_TYPE":"U","MEAN_ANOMALY":"266.8823","OBJECT_TYPE":"PAYLOAD","EPOCH":"2022-10-11T16:43:39.345024","RCS_SIZE":"LARGE","OBJECT_NAME":"STARLINK-2611","RA_OF_ASC_NODE":"185.8154","BSTAR":"-0.00011519000000","PERIOD":"95.594","COUNTRY_CODE":"US","TLE_LINE2":"2 48364  53.0550 185.8154 0001226  93.2306 266.8823 15.06370447 80034","EPHEMERIS_TYPE":"0","INCLINATION":"53.0550","MEAN_MOTION_DDOT":"0.0000000000000","MEAN_ELEMENT_THEORY":"SGP4","SEMIMAJOR_AXIS":"6925.439","TLE_LINE1":"1 48364U 21038M   22284.69698316 -.00001995  00000-0 -11519-3 0  9991","GP_ID":"214788716","DECAY_DATE":null,"TIME_SYSTEM":"UTC","MEAN_MOTION_DOT":"-0.00001995","FILE":"3603873","LAUNCH_DATE":"2021-05-04","APOAPSIS":"548.153","PERIAPSIS":"546.455","REV_AT_EPOCH":"8003","OBJECT_ID":"2021-038M","MEAN_MOTION":"15.06370447","ECCENTRICITY":"0.00012260","SITE":"AFETR"},{"MEAN_ELEMENT_THEORY":"SGP4","SEMIMAJOR_AXIS":"6925.403","MEAN_MOTION_DDOT":"0.0000000000000","MEAN_MOTION_DOT":"-0.00003421","TIME_SYSTEM":"UTC","TLE_LINE1":"1 48365U 21038N   22284.78908931 -.00003421  00000-0 -21094-3 0  9994","GP_ID":"214788718","DECAY_DATE":null,"MEAN_MOTION":"15.06382261","OBJECT_ID":"2021-038N","REV_AT_EPOCH":"8005","SITE":"AFETR","ECCENTRICITY":"0.00016180","FILE":"3603873","APOAPSIS":"548.388","LAUNCH_DATE":"2021-05-04","PERIAPSIS":"546.147","CLASSIFICATION_TYPE":"U","REF_FRAME":"TEME","CENTER_NAME":"EARTH","ARG_OF_PERICENTER":"116.6556","NORAD_CAT_ID":"48365","ELEMENT_SET_NO":"999","OBJECT_TYPE":"PAYLOAD","MEAN_ANOMALY":"243.4599","EPOCH":"2022-10-11T18:56:17.316384","RCS_SIZE":"LARGE","COUNTRY_CODE":"US","INCLINATION":"53.0532","TLE_LINE2":"2 48365  53.0532 185.1955 0001618 116.6556 243.4599 15.06382261 80059","EPHEMERIS_TYPE":"0","RA_OF_ASC_NODE":"185.1955","OBJECT_NAME":"STARLINK-2608","PERIOD":"95.593","BSTAR":"-0.00021094000000"},{"CLASSIFICATION_TYPE":"U","REF_FRAME":"TEME","CENTER_NAME":"EARTH","ARG_OF_PERICENTER":"116.6454","NORAD_CAT_ID":"48366","ELEMENT_SET_NO":"999","OBJECT_TYPE":"PAYLOAD","MEAN_ANOMALY":"243.4704","EPOCH":"2022-10-11T17:02:50.352000","RCS_SIZE":"LARGE","COUNTRY_CODE":"US","INCLINATION":"53.0529","TLE_LINE2":"2 48366  53.0529 180.5633 0001648 116.6454 243.4704 15.06381858 79516","EPHEMERIS_TYPE":"0","RA_OF_ASC_NODE":"180.5633","OBJECT_NAME":"STARLINK-2631","PERIOD":"95.593","BSTAR":"0.00025539000000","MEAN_ELEMENT_THEORY":"SGP4","SEMIMAJOR_AXIS":"6925.404","MEAN_MOTION_DDOT":"0.0000000000000","TIME_SYSTEM":"UTC","MEAN_MOTION_DOT":"0.00003523","TLE_LINE1":"1 48366U 21038P   22284.71030500  .00003523  00000-0  25539-3 0  9995","GP_ID":"214822556","DECAY_DATE":null,"MEAN_MOTION":"15.06381858","OBJECT_ID":"2021-038P","REV_AT_EPOCH":"7951","SITE":"AFETR","ECCENTRICITY":"0.00016480","FILE":"3604484","APOAPSIS":"548.410","LAUNCH_DATE":"2021-05-04","PERIAPSIS":"546.128"},{"RCS_SIZE":"LARGE","EPOCH":"2022-10-11T01:02:07.483488","PERIOD":"95.592","BSTAR":"0.00008273200000","RA_OF_ASC_NODE":"183.5525","OBJECT_NAME":"STARLINK-2643","INCLINATION":"53.0542","TLE_LINE2":"2 48367  53.0542 183.5525 0001663 106.6652 253.4520 15.06397141 80006","EPHEMERIS_TYPE":"0","COUNTRY_CODE":"US","NORAD_CAT_ID":"48367","ELEMENT_SET_NO":"999","ARG_OF_PERICENTER":"106.6652","CLASSIFICATION_TYPE":"U","REF_FRAME":"TEME","CENTER_NAME":"EARTH","MEAN_ANOMALY":"253.4520","OBJECT_TYPE":"PAYLOAD","PERIAPSIS":"546.071","LAUNCH_DATE":"2021-05-04","APOAPSIS":"548.374","FILE":"3603931","SITE":"AFETR","ECCENTRICITY":"0.00016630","MEAN_MOTION":"15.06397141","OBJECT_ID":"2021-038Q","REV_AT_EPOCH":"8000","MEAN_MOTION_DDOT":"0.0000000000000","SEMIMAJOR_AXIS":"6925.357","MEAN_ELEMENT_THEORY":"SGP4","DECAY_DATE":null,"GP_ID":"214790372","TLE_LINE1":"1 48367U 21038Q   22284.04314217  .00000951  00000-0  82732-4 0  9993","TIME_SYSTEM":"UTC","MEAN_MOTION_DOT":"0.00000951"},{"MEAN_ANOMALY":"248.8487","OBJECT_TYPE":"PAYLOAD","ARG_OF_PERICENTER":"111.2633","ELEMENT_SET_NO":"999","NORAD_CAT_ID":"48368","REF_FRAME":"TEME","CENTER_NAME":"EARTH","CLASSIFICATION_TYPE":"U","OBJECT_NAME":"STARLINK-2623","RA_OF_ASC_NODE":"180.3546","BSTAR":"-0.00012520000000","PERIOD":"95.594","COUNTRY_CODE":"US","EPHEMERIS_TYPE":"0","TLE_LINE2":"2 48368  53.0542 180.3546 0001231 111.2633 248.8487 15.06377147 79537","INCLINATION":"53.0542","EPOCH":"2022-10-11T19:36:49.684608","RCS_SIZE":"LARGE","TLE_LINE1":"1 48368U 21038R   22284.81724172 -.00002144  00000-0 -12520-3 0  9999","GP_ID":"214821055","DECAY_DATE":null,"TIME_SYSTEM":"UTC","MEAN_MOTION_DOT":"-0.00002144","MEAN_MOTION_DDOT":"0.0000000000000","MEAN_ELEMENT_THEORY":"SGP4","SEMIMAJOR_AXIS":"6925.419","FILE":"3604484","LAUNCH_DATE":"2021-05-04","APOAPSIS":"548.136","PERIAPSIS":"546.431","OBJECT_ID":"2021-038R","MEAN_MOTION":"15.06377147","REV_AT_EPOCH":"7953","ECCENTRICITY":"0.00012310","SITE":"AFETR"},{"ECCENTRICITY":"0.00010630","SITE":"AFETR","OBJECT_ID":"2021-038S","MEAN_MOTION":"15.06378105","REV_AT_EPOCH":"7951","APOAPSIS":"548.017","LAUNCH_DATE":"2021-05-04","PERIAPSIS":"546.544","FILE":"3604484","MEAN_MOTION_DOT":"-0.00001914","TIME_SYSTEM":"UTC","DECAY_DATE":null,"GP_ID":"214822306","TLE_LINE1":"1 48369U 21038S   22284.70294430 -.00001914  00000-0 -10974-3 0  9992","SEMIMAJOR_AXIS":"6925.416","MEAN_ELEMENT_THEORY":"SGP4","MEAN_MOTION_DDOT":"0.0000000000000","TLE_LINE2":"2 48369  53.0553 180.5909 0001063  96.9388 263.1722 15.06378105 79519","EPHEMERIS_TYPE":"0","INCLINATION":"53.0553","COUNTRY_CODE":"US","BSTAR":"-0.00010974000000","PERIOD":"95.594","OBJECT_NAME":"STARLINK-2641","RA_OF_ASC_NODE":"180.5909","RCS_SIZE":"LARGE","EPOCH":"2022-10-11T16:52:14.387520","OBJECT_TYPE":"PAYLOAD","MEAN_ANOMALY":"263.1722","REF_FRAME":"TEME","CENTER_NAME":"EARTH","CLASSIFICATION_TYPE":"U","ELEMENT_SET_NO":"999","NORAD_CAT_ID":"48369","ARG_OF_PERICENTER":"96.9388"},{"OBJECT_TYPE":"PAYLOAD","MEAN_ANOMALY":"261.6717","REF_FRAME":"TEME","CENTER_NAME":"EARTH","CLASSIFICATION_TYPE":"U","ARG_OF_PERICENTER":"98.4455","ELEMENT_SET_NO":"999","NORAD_CAT_ID":"48370","COUNTRY_CODE":"US","EPHEMERIS_TYPE":"0","TLE_LINE2":"2 48370  53.0549 180.6066 0001620  98.4455 261.6717 15.06394266 79515","INCLINATION":"53.0549","OBJECT_NAME":"STARLINK-2621","RA_OF_ASC_NODE":"180.6066","BSTAR":"-0.00013533000000","PERIOD":"95.593","EPOCH":"2022-10-11T16:46:55.015104","RCS_SIZE":"LARGE","TIME_SYSTEM":"UTC","MEAN_MOTION_DOT":"-0.00002296","TLE_LINE1":"1 48370U 21038T   22284.69924786 -.00002296  00000-0 -13533-3 0  9994","GP_ID":"214822057","DECAY_DATE":null,"MEAN_ELEMENT_THEORY":"SGP4","SEMIMAJOR_AXIS":"6925.366","MEAN_MOTION_DDOT":"0.0000000000000","MEAN_MOTION":"15.06394266","REV_AT_EPOCH":"7951","OBJECT_ID":"2021-038T","ECCENTRICITY":"0.00016200","SITE":"AFETR","FILE":"3604484","LAUNCH_DATE":"2021-05-04","PERIAPSIS":"546.109","APOAPSIS":"548.353"},{"DECAY_DATE":null,"GP_ID":"214790379","TLE_LINE1":"1 48371U 21038U   22284.76191332 -.00000540  00000-0 -17357-4 0  9995","MEAN_MOTION_DOT":"-0.00000540","TIME_SYSTEM":"UTC","MEAN_MOTION_DDOT":"0.0000000000000","SEMIMAJOR_AXIS":"6925.399","MEAN_ELEMENT_THEORY":"SGP4","PERIAPSIS":"546.257","LAUNCH_DATE":"2021-05-04","APOAPSIS":"548.271","FILE":"3603967","SITE":"AFETR","ECCENTRICITY":"0.00014540","OBJECT_ID":"2021-038U","MEAN_MOTION":"15.06383633","REV_AT_EPOCH":"8011","MEAN_ANOMALY":"255.2446","OBJECT_TYPE":"PAYLOAD","NORAD_CAT_ID":"48371","ELEMENT_SET_NO":"999","ARG_OF_PERICENTER":"104.8704","CLASSIFICATION_TYPE":"U","CENTER_NAME":"EARTH","REF_FRAME":"TEME","PERIOD":"95.593","BSTAR":"-0.00001735700000","RA_OF_ASC_NODE":"180.3284","OBJECT_NAME":"STARLINK-2589","INCLINATION":"53.0533","EPHEMERIS_TYPE":"0","TLE_LINE2":"2 48371  53.0533 180.3284 0001454 104.8704 255.2446 15.06383633 80114","COUNTRY_CODE":"US","RCS_SIZE":"LARGE","EPOCH":"2022-10-11T18:17:09.310848"},{"OBJECT_TYPE":"PAYLOAD","MEAN_ANOMALY":"267.5094","CLASSIFICATION_TYPE":"U","CENTER_NAME":"EARTH","REF_FRAME":"TEME","NORAD_CAT_ID":"48372","ELEMENT_SET_NO":"999","ARG_OF_PERICENTER":"92.6040","INCLINATION":"53.0534","TLE_LINE2":"2 48372  53.0534 180.6411 0001261  92.6040 267.5094 15.06378252 80109","EPHEMERIS_TYPE":"0","COUNTRY_CODE":"US","PERIOD":"95.594","BSTAR":"-0.00012860000000","RA_OF_ASC_NODE":"180.6411","OBJECT_NAME":"STARLINK-2572","RCS_SIZE":"LARGE","EPOCH":"2022-10-11T16:36:18.702432","MEAN_MOTION_DOT":"-0.00002195","TIME_SYSTEM":"UTC","DECAY_DATE":null,"TLE_LINE1":"1 48372U 21038V   22284.69188313 -.00002195  00000-0 -12860-3 0  9994","GP_ID":"214789915","SEMIMAJOR_AXIS":"6925.415","MEAN_ELEMENT_THEORY":"SGP4","MEAN_MOTION_DDOT":"0.0000000000000","SITE":"AFETR","ECCENTRICITY":"0.00012610","REV_AT_EPOCH":"8010","MEAN_MOTION":"15.06378252","OBJECT_ID":"2021-038V","LAUNCH_DATE":"2021-05-04","APOAPSIS":"548.154","PERIAPSIS":"546.407","FILE":"3603934"}];
